#aV2010  6 14  0  0   .00000000      96 DD+AD WGS84 FIT  NGA
## 1588  86400.00000000   900.00000000 55361  .0000000000000
+   31     1  2  3  4  5  6  7  8  9 10 11 12 13 14 15 16 17
+         18 19 20 21 22 23 24 26 27 28 29 30 31 32  0  0  0
+          0  0  0  0  0  0  0  0  0  0  0  0  0  0  0  0  0
+          0  0  0  0  0  0  0  0  0  0  0  0  0  0  0  0  0
+          0  0  0  0  0  0  0  0  0  0  0  0  0  0  0  0  0
++         0  0  0  0  0  0  0  0  0  0  0  0  0  0  0  0  0
++         0  0  0  0  0  0  0  0  0  0  0  0  0  0  0  0  0
++         0  0  0  0  0  0  0  0  0  0  0  0  0  0  0  0  0
++         0  0  0  0  0  0  0  0  0  0  0  0  0  0  0  0  0
++         0  0  0  0  0  0  0  0  0  0  0  0  0  0  0  0  0
%c cc cc ccc ccc cccc cccc cccc cccc ccccc ccccc ccccc ccccc
%c cc cc ccc ccc cccc cccc cccc cccc ccccc ccccc ccccc ccccc
%f  0.0000000  0.000000000  0.00000000000  0.000000000000000
%f  0.0000000  0.000000000  0.00000000000  0.000000000000000
%i    0    0    0    0      0      0      0      0         0
%i    0    0    0    0      0      0      0      0         0
/*      NGA, ST. LOUIS,MO.                                  
/*   EPHEMERIS COMPUTED FROM  3 DAYS OF DATA                
/* CCCCCCCCCCCCCCCCCCCCCCCCCCCCCCCCCCCCCCCCCCCCCCCCCCCCCCCCC
/* CCCCCCCCCCCCCCCCCCCCCCCCCCCCCCCCCCCCCCCCCCCCCCCCCCCCCCCCC
*  2010  6 14 20 45   .00000000                                                 
P  1  17061.053759  -1707.332724  20220.349006   -130.717013                    
V  1  16256.143333  20136.715920 -11799.899061      -.039943                    
P  2 -17950.754015  13782.563849  13502.555159    264.621184                    
V  2 -17665.843524    543.095044 -24467.398721       .032829                    
P  3   9684.064116 -23726.723054   5888.385251    568.379731                    
V  3   2271.270430   8737.463568  29974.214581       .051099                    
P  4 -26108.085072   5721.710215   1100.901116    103.930821                    
V  4  -2154.606689  -2860.909260 -30982.523148       .081461                    
P  5  -5709.378778  15596.947298  20693.093957     -7.323602                    
V  5 -17955.524769 -19291.028312   9660.822738      -.021213                    
P  6  13657.244170 -20485.330367   9941.320946    607.757374                    
V  6   -327.486386  12896.333193  27675.157355      -.127453                    
P  7 -19799.616456  -7514.141688  16124.498390     -1.218431                    
V  7  19771.252389  -5283.421806  21628.227421      -.002025                    
P  8 -26242.197051   -633.345344   5613.709760      5.753491                    
V  8   6823.867544  -2097.908298  31067.680708       .001522                    
P  9   -203.656404  15299.341345 -22255.655311     12.561473                    
V  9 -26328.520671   5490.595269   4156.349845       .021492                    
P 10 -14597.708104   5971.102687  21223.673002    -44.613130                    
V 10 -17093.985846 -21375.104854  -5353.023362      -.008666                    
P 11  -6299.421089 -15675.994120 -20752.098169    -69.048685                    
V 11  23943.043408 -10441.185907    997.682971      -.024523                    
P 12  10263.139436  22526.146068  -9791.974847   -104.143451                    
V 12  -9637.656829  -8137.443076 -28535.650100       .041369                    
P 13  -8020.598747 -14916.930421  20309.452197    303.264331                    
V 13  10968.311086 -23622.120816 -12964.096659      -.004512                    
P 14  16485.865153  -5775.003260 -19829.324162     57.049238                    
V 14  -8610.553399  23975.115661 -14171.495776       .041826                    
P 15  -5554.774992  25615.255670  -3874.206968   -256.226831                    
V 15  -4501.444719   3735.717730  31157.885837       .065821                    
P 16  10634.411114 -10608.725415  21932.588628    -81.470495                    
V 16  17723.038752  21330.170358   2001.370234      -.036773                    
P 17 -16547.960364   3670.101684 -20289.101019    156.640545                    
V 17   8101.882392 -24794.040588 -11241.754411       .020227                    
P 18  19751.349744  16879.889053  -6139.744335     74.660280                    
V 18   2726.555116   8234.608718  29684.424551       .024156                    
P 19   6952.827007 -24918.379811  -5197.125365    -42.272069                    
V 19   5539.821061  -4884.967661  30957.255770      -.027975                    
P 20 -12167.332223 -22198.698162  -8253.332566     54.647322                    
V 20   9354.609961   5421.247713 -28793.123120      -.005224                    
P 21  22788.032401   5935.030124  13214.814955    -67.118978                    
V 21 -15399.114578   5154.122861  24257.543800      -.026084                    
P 22  20264.171678   6337.241932 -15851.671124    169.723881                    
V 22  11068.805174  17382.583198  20788.663394      -.008191                    
P 23  -2905.290891 -21789.206508  14645.042795    366.992844                    
V 23   8350.476043 -16932.655792 -23809.946133      -.014915                    
P 24  26133.941734  -3954.193163   -518.458577    296.205325                    
V 24   1217.935328   3265.449652  31630.042977       .031936                    
P 26  -4723.801490  24761.802533  -8135.003138    -66.181580                    
V 26  -5611.909293   8127.703564  30431.321926      -.055763                    
P 27  -4654.427754  15326.695960 -20473.135126    161.056367                    
V 27 -26988.344857   5667.115335  10209.265543       .034699                    
P 28 -20124.426124  -9591.707764 -14176.006505    -13.530048                    
V 28 -10251.790532 -15738.286479  24109.013680       .010404                    
P 29   8765.811301  15626.564323  19714.174594    127.406371                    
V 29 -10005.613095  22741.804132 -13600.591418       .027917                    
P 30  18024.128391  19547.508894   -382.302085    251.858322                    
V 30  -2123.592204   1984.157089 -31626.650762       .034052                    
P 31  25287.452623  -7502.048132   4056.454605    -30.824649                    
V 31   5163.244388   1172.810821 -31446.174336       .022927                    
P 32  -4498.739036 -22392.109480 -13501.972368    -15.730103                    
V 32  12003.094547  13016.420309 -24627.397634      -.084675                    
EOF
